[{"OBJECT_NAME":"STARLINK-35379","OBJECT_ID":"2025-235AC","EPOCH":"2026-03-09T17:20:58.636896","MEAN_MOTION":15.30199465,"ECCENTRICITY":9.47e-5,"INCLINATION":53.1567,"RA_OF_ASC_NODE":245.3149,"ARG_OF_PERICENTER":82.2001,"MEAN_ANOMALY":277.9107,"EPHEMERIS_TYPE":0,"CLASSIFICATION_TYPE":"U","NORAD_CAT_ID":66084,"ELEMENT_SET_NO":999,"REV_AT_EPOCH":2292,"BSTAR":0.0008792672,"MEAN_MOTION_DOT":0.00025772,"MEAN_MOTION_DDOT":0},{"OBJECT_NAME":"CZ-2C DEB","OBJECT_ID":"2018-056F","EPOCH":"2026-03-09T10:57:26.102304","MEAN_MOTION":15.27739248,"ECCENTRICITY":0.00119172,"INCLINATION":98.1188,"RA_OF_ASC_NODE":250.032,"ARG_OF_PERICENTER":4.6998,"MEAN_ANOMALY":355.4349,"EPHEMERIS_TYPE":0,"CLASSIFICATION_TYPE":"U","NORAD_CAT_ID":43534,"ELEMENT_SET_NO":999,"REV_AT_EPOCH":41855,"BSTAR":0.00085537155,"MEAN_MOTION_DOT":0.00023193,"MEAN_MOTION_DDOT":0}]
